SIRION PATHFINDER-2     
1 43759U 18099B   26175.11880585  .00003790  00000+0  20872-3 0  9992
2 43759  97.4251 224.0115 0007010 275.4609  84.5823 15.14601390413675
CORVUS BC4              
1 43767U 18099K   26175.06863176  .00003907  00000+0  22768-3 0  9998
2 43767  97.4066 217.8472 0007537 348.7267  11.3794 15.12540747413448
M2 PATHFINDER           
1 45727U 20037E   26175.09593832  .00001743  00000+0  12825-3 0  9992
2 45727  97.8139   6.4049 0012595 126.1910 234.0482 15.04695866326531
NETSAT-4                
1 46504U 20068U   26175.25392071  .00015853  00000+0  34881-3 0  9993
2 46504  97.8606 184.0630 0003232 301.0366  59.0563 15.44068925316864
NETSAT-3                
1 46505U 20068V   26175.00617603  .00016209  00000+0  37103-3 0  9994
2 46505  97.8655 182.0032 0003310 330.8691  29.2370 15.42883424316739
NETSAT-1                
1 46506U 20068W   26175.24228123  .00010745  00000+0  32110-3 0  9998
2 46506  97.8747 176.5056 0004176   9.8651 350.2672 15.34782789316382
NETSAT-2                
1 46507U 20068X   26175.28408282  .00020236  00000+0  41253-3 0  9993
2 46507  97.8621 184.0160 0002360   1.2129 358.9124 15.46266444316838
GREENCUBE (IO-117)      
1 53109U 22080E   26174.72102765 -.00000003  00000+0  00000+0 0  9992
2 53109  70.1445 295.9726 0008926 288.1418  71.8270  6.42583215 92482
SITRO-AIS 5 (KATYS)     
1 57176U 23091L   26175.26639423  .00011063  00000+0  38737-3 0  9998
2 57176  97.5060 239.2333 0012577  81.6480 278.6186 15.29595340165428
SITRO-AIS 6 (CHIRKIN)   
1 57192U 23091AC  26175.26172328  .00009481  00000+0  37008-3 0  9993
2 57192  97.5068 238.3100 0012977  84.6547 275.6172 15.26050114165364
SITRO-AIS 8 (ANOKHIN)   
1 57193U 23091AD  26175.27098752  .00013041  00000+0  41961-3 0  9993
2 57193  97.5057 240.8554 0011550  78.0658 282.1878 15.32301729165533
SITRO-AIS 7 (FARTUSHNIY)
1 57194U 23091AE  26175.26632336  .00009107  00000+0  35900-3 0  9999
2 57194  97.5066 238.1360 0012855  85.5975 274.6731 15.25735113165357
SITRO-AIS 10 (BURDAEV)  
1 57199U 23091AK  26175.27259066  .00018293  00000+0  47740-3 0  9991
2 57199  97.5082 245.9849 0006996  58.7181 301.4748 15.38845989165857
SITRO-AIS 9 (SHCHUKIN)  
1 57201U 23091AM  26175.23622074  .00017243  00000+0  45754-3 0  9991
2 57201  97.5079 245.6720 0007246  59.0713 301.1243 15.38345353165831
SITRO-AIS 12 (SMIRENNIY)
1 57204U 23091AQ  26175.29053327  .00017661  00000+0  46412-3 0  9995
2 57204  97.5093 246.1992 0006732  53.7958 306.3908 15.38641463165867
SITRO-AIS 11 (SHEFFER)  
1 57208U 23091AU  26175.23696128  .00017427  00000+0  45172-3 0  9997
2 57208  97.5090 246.3954 0006623  53.6673 306.5183 15.39068342165878
SITRO-AIS 25            
1 59066U 24039R   26175.27698948  .00001991  00000+0  15757-3 0  9995
2 59066  95.3909 239.9647 0142695 303.7154  55.0537 14.93543904125783
SITRO-AIS 26            
1 59067U 24039S   26175.27933110  .00001854  00000+0  14751-3 0  9990
2 59067  95.3907 239.8624 0143155 304.2976  54.4765 14.93337767125779
SITRO-AIS 27            
1 59068U 24039T   26175.31457817  .00002371  00000+0  18621-3 0  9996
2 59068  95.3909 240.1615 0142131 302.7239  56.0350 14.93757243125802
SITRO-AIS 28            
1 59071U 24039U   26175.29185567  .00001668  00000+0  13177-3 0  9996
2 59071  95.3912 240.1937 0142051 302.6684  56.0904 14.93791565125801
GRBBETA                 
1 60237U 24128C   26175.18863118  .00002558  00000+0  18316-3 0  9993
2 60237  61.9881 191.7006 0039742 136.1475 224.2785 15.06673239107324
OOV-CUBE (TUBSAT-30)    
1 60240U 24128F   26175.17509553  .00001358  00000+0  11477-3 0  9994
2 60240  61.9924 201.2058 0043766 135.3131 225.1501 15.02794999107162
ROBUSTA-3A (MEDITERRAN*)
1 60243U 24128J   26175.14631881  .00003769  00000+0  22904-3 0  9999
2 60243  61.9847 183.6324 0040402 129.5028 230.9651 15.11729530107475
LASARSAT                
1 62391U 24247Q   26174.17707894  .00024962  00000+0  49391-3 0  9994
2 62391  44.9731 228.5471 0007559   6.4663 353.6324 15.46678707 84246
CROCUBE                 
1 62394U 24247T   26174.16751798  .00028182  00000+0  52044-3 0  9995
2 62394  44.9701 225.8355 0007373  11.2148 348.8906 15.48608154 84279
FORESAIL-1 PRIME        
1 66778U 25276DS  26175.17820796  .00003923  00000+0  19203-3 0  9991
2 66778  97.4200 248.3212 0003934  89.2659 270.9027 15.18755619 31467
KNACKSAT-2              
1 67683U 98067XZ  26174.62737886  .00038628  00000+0  46309-3 0  9998
2 67683  51.6285 262.0701 0008762 244.0918 115.9173 15.60494137 21288
